KUIPER-00089            
1 64834U 25151U   26003.98130706  .00004895  00000+0  66991-3 0  9993
2 64834  51.8988 211.7284 0002126 112.1314 247.9874 14.79978548 25937
KUIPER-00090            
1 64835U 25151V   26003.82337826 -.00003704  00000+0 -49593-3 0  9998
2 64835  51.8968 204.6514 0004379 127.7289 232.4069 14.76546767 26014
KUIPER-00091            
1 64836U 25151W   26003.98392372  .00004490  00000+0  61685-3 0  9990
2 64836  51.8990 209.2223 0008633  82.0112 278.1830 14.79974616 25960
KUIPER-00092            
1 64837U 25151X   26003.97587243  .00000848  00000+0  14020-3 0  9997
2 64837  51.8992 216.7553 0003008  81.6573 278.4730 14.79960166 27070
KUIPER-00093            
1 64838U 25151Y   26003.97318453  .00000699  00000+0  12093-3 0  9995
2 64838  51.8995 219.2540 0003199  82.3381 277.7945 14.79884429 25822
KUIPER-00094            
1 64839U 25151Z   26003.96987049  .00007433  00000+0  53484-3 0  9990
2 64839  51.8883 200.0784 0004541  63.1617 296.9820 15.05127567 26096
KUIPER-00081            
1 65132U 25171A   26004.16668980  .00012800  00000+0  16147-2 0  9990
2 65132  51.8992  73.4376 0000888 121.1853 232.9298 14.82215875  5595
KUIPER-00088            
1 65133U 25171B   26003.79988742  .00114765  00000+0  15823-1 0  9992
2 65133  51.9030  93.1481 0006737 273.9268  86.0923 14.77172517 23177
